NORAD_CAT_ID,OBJECT_NAME,OBJECT_TYPE,EPOCH,MEAN_MOTION,ECCENTRICITY,INCLINATION,RA_OF_ASC_NODE,ARG_OF_PERICENTER,MEAN_ANOMALY,BSTAR,MEAN_MOTION_DOT,MEAN_MOTION_DDOT,TLE_LINE0,TLE_LINE1,TLE_LINE2,SEMIMAJOR_AXIS,PERIOD,APOGEE,PERIGEE,DECAYED
49411.0,STARLINK-3162,PAYLOAD,2023-09-07 17:34:33,15.08842683,0.0001218,53.2185,2.0369,99.0591,261.0539,3.2082e-05,2.23e-06,0.0,0 STARLINK-3162,1 49411U 21104D   23250.73233465  .00000223  00000-0  32082-4 0  9998,2 49411  53.2185   2.0369 0001218  99.0591 261.0539 15.08842683100798,6917.872,95.437,540.58,538.895,0.0
49411.0,STARLINK-3162,PAYLOAD,2023-09-08 11:03:48,15.08836463,0.0001221,53.217,358.766,92.9774,267.1358,6.7454e-06,-1.8e-06,0.0,0 STARLINK-3162,1 49411U 21104D   23251.46098050 -.00000180  00000-0  67454-5 0  9993,2 49411  53.2170 358.7660 0001221  92.9774 267.1358 15.08836463101983,6917.891,95.438,540.601,538.912,0.0
49411.0,STARLINK-3162,PAYLOAD,2023-09-08 12:39:11,15.08836781,0.0001239,53.2182,358.4691,92.0908,268.0226,1.1369e-05,-1.07e-06,0.0,0 STARLINK-3162,1 49411U 21104D   23251.52722042 -.00000107  00000-0  11369-4 0  9997,2 49411  53.2182 358.4691 0001239  92.0908 268.0226 15.08836781100915,6917.89,95.438,540.612,538.898,0.0
49411.0,STARLINK-3162,PAYLOAD,2023-09-08 14:14:34,15.08839142,0.0001432,53.2186,358.172,92.7761,267.3395,3.2437e-06,-2.36e-06,0.0,0 STARLINK-3162,1 49411U 21104D   23251.59345914 -.00000236  00000-0  32437-5 0  9996,2 49411  53.2186 358.1720 0001432  92.7761 267.3395 15.08839142100922,6917.883,95.438,540.739,538.757,0.0
49411.0,STARLINK-3162,PAYLOAD,2023-09-08 23:46:53,15.08803926,0.0001406,53.2187,356.3881,88.5559,271.5594,0.00041419,6.304e-05,0.0,0 STARLINK-3162,1 49411U 21104D   23251.99090069  .00006304  00000-0  41419-3 0  9997,2 49411  53.2187 356.3881 0001406  88.5559 271.5594 15.08803926102066,6917.991,95.44,540.828,538.883,0.0
49411.0,STARLINK-3162,PAYLOAD,2023-09-09 10:54:37,15.08765415,0.0001822,53.219,354.3078,90.5336,269.5865,0.00095739,0.00014951,0.0,0 STARLINK-3162,1 49411U 21104D   23252.45459707  .00014951  00000-0  95739-3 0  9998,2 49411  53.2190 354.3078 0001822  90.5336 269.5865 15.08765415102130,6918.108,95.442,541.234,538.713,0.0
49411.0,STARLINK-3162,PAYLOAD,2023-09-09 14:05:21,15.08846893,0.0001337,53.2192,353.7137,97.2893,262.8252,-4.6381e-05,-1.026e-05,0.0,0 STARLINK-3162,1 49411U 21104D   23252.58705854 -.00001026  00000-0 -46381-4 0  9990,2 49411  53.2192 353.7137 0001337  97.2893 262.8252 15.08846893101072,6917.859,95.437,540.649,538.799,0.0
49411.0,STARLINK-3162,PAYLOAD,2023-09-09 23:37:40,15.08836069,0.0001372,53.2191,351.9297,93.7853,266.3296,0.00010499,1.383e-05,0.0,0 STARLINK-3162,1 49411U 21104D   23252.98450228  .00001383  00000-0  10499-3 0  9990,2 49411  53.2191 351.9297 0001372  93.7853 266.3296 15.08836069102212,6917.892,95.438,540.707,538.808,0.0
49411.0,STARLINK-3162,PAYLOAD,2023-09-10 13:56:08,15.08842449,0.0001328,53.2191,349.2537,90.4586,269.6558,0.00013651,1.885e-05,0.0,0 STARLINK-3162,1 49411U 21104D   23253.58065928  .00001885  00000-0  13651-3 0  9996,2 49411  53.2191 349.2537 0001328  90.4586 269.6558 15.08842449101223,6917.873,95.437,540.657,538.819,0.0
49411.0,STARLINK-3162,PAYLOAD,2023-09-11 05:50:00,15.08838052,0.0001333,53.2188,346.2794,84.8884,275.2261,7.3224e-05,8.78e-06,0.0,0 STARLINK-3162,1 49411U 21104D   23254.24306424  .00000878  00000-0  73224-4 0  9993,2 49411  53.2188 346.2794 0001333  84.8884 275.2261 15.08838052102405,6917.886,95.438,540.673,538.829,0.0
49411.0,STARLINK-3162,PAYLOAD,2023-09-11 13:46:56,15.08841903,0.000131,53.2184,344.7913,75.9467,284.167,3.0641e-05,2e-06,0.0,0 STARLINK-3162,1 49411U 21104D   23254.57426374  .00000200  00000-0  30641-4 0  9991,2 49411  53.2184 344.7913 0001310  75.9467 284.1670 15.08841903101377,6917.875,95.437,540.646,538.833,0.0
49411.0,STARLINK-3162,PAYLOAD,2023-09-12 10:26:57,15.08839942,8.35e-05,53.2182,340.9267,84.8567,275.2521,3.6044e-05,2.86e-06,0.0,0 STARLINK-3162,1 49411U 21104D   23255.43538318  .00000286  00000-0  36044-4 0  9996,2 49411  53.2182 340.9267 0000835  84.8567 275.2521 15.08839942102586,6917.881,95.438,540.323,539.168,0.0
49411.0,STARLINK-3162,PAYLOAD,2023-09-12 12:02:19,15.08847772,0.0001299,53.2175,340.6278,86.8286,273.2854,5.8159e-05,6.38e-06,0.0,0 STARLINK-3162,1 49411U 21104D   23255.50161868  .00000638  00000-0  58159-4 0  9998,2 49411  53.2175 340.6278 0001299  86.8286 273.2854 15.08847772101511,6917.857,95.437,540.62,538.823,0.0
49411.0,STARLINK-3162,PAYLOAD,2023-09-13 11:53:06,15.0885404,0.0001496,53.2184,336.1675,77.1678,282.9481,0.00014807,2.07e-05,0.0,0 STARLINK-3162,1 49411U 21104D   23256.49520972  .00002070  00000-0  14807-3 0  9995,2 49411  53.2184 336.1675 0001496  77.1678 282.9481 15.08854040101664,6917.837,95.437,540.737,538.668,0.0
49411.0,STARLINK-3162,PAYLOAD,2023-09-13 16:39:14,15.08864055,0.0001455,53.2185,335.2754,82.4952,277.6206,0.00025338,3.749e-05,0.0,0 STARLINK-3162,1 49411U 21104D   23256.69391919  .00003749  00000-0  25338-3 0  9999,2 49411  53.2185 335.2754 0001455  82.4952 277.6206 15.08864055102778,6917.807,95.436,540.678,538.665,0.0
49411.0,STARLINK-3162,PAYLOAD,2023-09-14 10:08:32,15.08816995,0.0001371,53.2181,332.0067,85.587,274.5279,-0.00028602,-4.834e-05,0.0,0 STARLINK-3162,1 49411U 21104D   23257.42259584 -.00004834  00000-0 -28602-3 0  9997,2 49411  53.2181 332.0067 0001371  85.5870 274.5279 15.08816995102884,6917.951,95.439,540.764,538.867,0.0
49411.0,STARLINK-3162,PAYLOAD,2023-09-14 11:43:55,15.08818501,0.0001405,53.2172,331.7081,92.0269,268.0884,-0.00027479,-4.656e-05,0.0,0 STARLINK-3162,1 49411U 21104D   23257.48883552 -.00004656  00000-0 -27479-3 0  9994,2 49411  53.2172 331.7081 0001405  92.0269 268.0884 15.08818501101816,6917.946,95.439,540.783,538.839,0.0
49411.0,STARLINK-3162,PAYLOAD,2023-09-15 09:59:19,15.08838812,0.0001382,53.2176,327.5484,77.6521,282.4626,-4.8671e-05,-1.062e-05,0.0,0 STARLINK-3162,1 49411U 21104D   23258.41619273 -.00001062  00000-0 -48671-4 0  9991,2 49411  53.2176 327.5484 0001382  77.6521 282.4626 15.08838812103031,6917.884,95.438,540.705,538.793,0.0
49411.0,STARLINK-3162,PAYLOAD,2023-09-15 11:34:42,15.08842927,0.0001327,53.2172,327.2471,112.4133,247.6999,7.2416e-05,8.65e-06,0.0,0 STARLINK-3162,1 49411U 21104D   23258.48243069  .00000865  00000-0  72416-4 0  9996,2 49411  53.2172 327.2471 0001327 112.4133 247.6999 15.08842927101964,6917.871,95.437,540.654,538.818,0.0
49411.0,STARLINK-3162,PAYLOAD,2023-09-16 09:50:06,15.08855473,0.0001364,53.217,323.0848,104.6508,255.4636,0.00059432,9.187e-05,0.0,0 STARLINK-3162,1 49411U 21104D   23259.40979527  .00009187  00000-0  59432-3 0  9992,2 49411  53.2170 323.0848 0001364 104.6508 255.4636 15.08855473102106,6917.833,95.437,540.642,538.755,0.0
49411.0,STARLINK-3162,PAYLOAD,2023-09-16 14:36:15,15.08860321,0.0001388,53.217,322.1923,106.1841,253.9304,0.00060244,9.318e-05,0.0,0 STARLINK-3162,1 49411U 21104D   23259.60851232  .00009318  00000-0  60244-3 0  9995,2 49411  53.2170 322.1923 0001388 106.1841 253.9304 15.08860321103219,6917.818,95.436,540.643,538.723,0.0
49411.0,STARLINK-3162,PAYLOAD,2023-09-16 20:57:47,15.08855362,0.0001269,53.2164,321.0012,87.5217,272.5921,0.00029259,4.374e-05,0.0,0 STARLINK-3162,1 49411U 21104D   23259.87347120  .00004374  00000-0  29259-3 0  9998,2 49411  53.2164 321.0012 0001269  87.5217 272.5921 15.08855362103251,6917.833,95.437,540.576,538.821,0.0
49411.0,STARLINK-3162,PAYLOAD,2023-09-17 09:40:54,15.08815579,0.0001224,53.2156,318.6228,68.5879,291.5244,-0.00043389,-7.182e-05,0.0,0 STARLINK-3162,1 49411U 21104D   23260.40340877 -.00007182  00000-0 -43389-3 0  9993,2 49411  53.2156 318.6228 0001224  68.5879 291.5244 15.08815579103331,6917.955,95.439,540.667,538.973,0.0
49411.0,STARLINK-3162,PAYLOAD,2023-09-18 03:10:09,15.08832824,8.09e-05,53.2147,315.3489,54.8088,305.298,0.00020206,2.929e-05,0.0,0 STARLINK-3162,1 49411U 21104D   23261.13205010  .00002929  00000-0  20206-3 0  9998,2 49411  53.2147 315.3489 0000809  54.8088 305.2980 15.08832824103446,6917.902,95.438,540.327,539.208,0.0
49411.0,STARLINK-3162,PAYLOAD,2023-09-18 09:31:40,15.08864309,0.0001163,53.2141,314.1613,63.728,296.3831,0.0009819,0.00015384,0.0,0 STARLINK-3162,1 49411U 21104D   23261.39700179  .00015384  00000-0  98190-3 0  9998,2 49411  53.2141 314.1613 0001163  63.7280 296.3831 15.08864309103485,6917.806,95.436,540.476,538.867,0.0
49411.0,STARLINK-3162,PAYLOAD,2023-09-18 11:07:04,15.08861983,0.0001593,53.2155,313.8663,66.5933,293.5227,0.0016167,0.00025551,0.0,0 STARLINK-3162,1 49411U 21104D   23261.46324839  .00025551  00000-0  16167-2 0  9991,2 49411  53.2155 313.8663 0001593  66.5933 293.5227 15.08861983102419,6917.813,95.436,540.78,538.576,0.0
49411.0,STARLINK-3162,PAYLOAD,2023-09-18 20:39:22,15.08870025,0.0001641,53.2158,312.0825,67.242,292.8745,0.00053444,8.235e-05,0.0,0 STARLINK-3162,1 49411U 21104D   23261.86067981  .00008235  00000-0  53444-3 0  9997,2 49411  53.2158 312.0825 0001641  67.2420 292.8745 15.08870025102476,6917.789,95.436,540.789,538.518,0.0
49411.0,STARLINK-3162,PAYLOAD,2023-09-19 03:00:54,15.08869495,0.0001798,53.2163,310.8929,65.5778,294.5401,0.00061568,9.532e-05,0.0,0 STARLINK-3162,1 49411U 21104D   23262.12563647  .00009532  00000-0  61568-3 0  9994,2 49411  53.2163 310.8929 0001798  65.5778 294.5401 15.08869495103594,6917.79,95.436,540.899,538.411,0.0
49411.0,STARLINK-3162,PAYLOAD,2023-09-20 02:51:41,15.08849728,0.0001755,53.2166,306.4326,75.5943,284.5244,-0.00016587,-2.928e-05,0.0,0 STARLINK-3162,1 49411U 21104D   23263.11922886 -.00002928  00000-0 -16587-3 0  9993,2 49411  53.2166 306.4326 0001755  75.5943 284.5244 15.08849728103745,6917.851,95.437,540.93,538.502,0.0
49411.0,STARLINK-3162,PAYLOAD,2023-09-20 09:13:14,15.08843225,0.0001572,53.2163,305.2421,81.3015,278.8155,-0.0001923,-3.347e-05,0.0,0 STARLINK-3162,1 49411U 21104D   23263.38419073 -.00003347  00000-0 -19230-3 0  9995,2 49411  53.2163 305.2421 0001572  81.3015 278.8155 15.08843225102705,6917.871,95.437,540.823,538.648,0.0
